start=new Date('2023-02-08T00:00:00.000Z').valueOf();
sats=[{"ARG_OF_PERICENTER":"251.9395","TLE_LINE1":"1 53052U 22077K   23038.47322559  .00001730  00000-0  13923-3 0  9998","COUNTRY_CODE":"US","ELEMENT_SET_NO":"999","NORAD_CAT_ID":"53052","MEAN_MOTION_DDOT":"0.0000000000000","REV_AT_EPOCH":"3194","MEAN_ELEMENT_THEORY":"SGP4","MEAN_ANOMALY":"108.1683","RCS_SIZE":"LARGE","OBJECT_TYPE":"PAYLOAD","PERIOD":"95.919","GP_ID":"224706248","REF_FRAME":"TEME","ECCENTRICITY":"0.00013420","EPOCH":"2023-02-07T11:21:26.690976","PERIAPSIS":"562.058","FILE":"3777208","DECAY_DATE":null,"BSTAR":"0.00013923000000","MEAN_MOTION":"15.01267327","TIME_SYSTEM":"UTC","CLASSIFICATION_TYPE":"U","APOAPSIS":"563.921","OBJECT_ID":"2022-077K","MEAN_MOTION_DOT":"0.00001730","CENTER_NAME":"EARTH","OBJECT_NAME":"STARLINK-4341","TLE_LINE2":"2 53052  97.6551 221.4001 0001342 251.9395 108.1683 15.01267327 31942","SEMIMAJOR_AXIS":"6941.124","RA_OF_ASC_NODE":"221.4001","EPHEMERIS_TYPE":"0","SITE":"AFWTR","LAUNCH_DATE":"2022-07-11","INCLINATION":"97.6551"},{"TLE_LINE2":"2 53053  97.6561 221.3935 0001176 253.0635 107.0461 15.01267248 31948","OBJECT_NAME":"STARLINK-4337","CENTER_NAME":"EARTH","MEAN_MOTION_DOT":"0.00001862","OBJECT_ID":"2022-077L","APOAPSIS":"563.806","TIME_SYSTEM":"UTC","CLASSIFICATION_TYPE":"U","MEAN_MOTION":"15.01267248","BSTAR":"0.00014950000000","INCLINATION":"97.6561","LAUNCH_DATE":"2022-07-11","SITE":"AFWTR","EPHEMERIS_TYPE":"0","RA_OF_ASC_NODE":"221.3935","SEMIMAJOR_AXIS":"6941.125","OBJECT_TYPE":"PAYLOAD","RCS_SIZE":"LARGE","MEAN_ANOMALY":"107.0461","MEAN_ELEMENT_THEORY":"SGP4","REV_AT_EPOCH":"3194","MEAN_MOTION_DDOT":"0.0000000000000","NORAD_CAT_ID":"53053","ELEMENT_SET_NO":"999","COUNTRY_CODE":"US","TLE_LINE1":"1 53053U 22077L   23038.46581931  .00001862  00000-0  14950-3 0  9996","ARG_OF_PERICENTER":"253.0635","DECAY_DATE":null,"FILE":"3777208","PERIAPSIS":"562.173","ECCENTRICITY":"0.00011760","EPOCH":"2023-02-07T11:10:46.788384","REF_FRAME":"TEME","GP_ID":"224705013","PERIOD":"95.919"},{"INCLINATION":"97.6557","LAUNCH_DATE":"2022-07-11","SITE":"AFWTR","EPHEMERIS_TYPE":"0","SEMIMAJOR_AXIS":"6941.128","RA_OF_ASC_NODE":"221.3967","TLE_LINE2":"2 53054  97.6557 221.3967 0000200 185.9156 174.2066 15.01266066 31941","CENTER_NAME":"EARTH","OBJECT_NAME":"STARLINK-4339","OBJECT_ID":"2022-077M","MEAN_MOTION_DOT":"0.00001298","BSTAR":"0.00010560000000","MEAN_MOTION":"15.01266066","TIME_SYSTEM":"UTC","CLASSIFICATION_TYPE":"U","APOAPSIS":"563.132","DECAY_DATE":null,"PERIAPSIS":"562.854","FILE":"3777208","EPOCH":"2023-02-07T11:18:46.933056","ECCENTRICITY":"0.00002000","PERIOD":"95.919","GP_ID":"224705759","REF_FRAME":"TEME","MEAN_ELEMENT_THEORY":"SGP4","MEAN_ANOMALY":"174.2066","RCS_SIZE":"LARGE","OBJECT_TYPE":"PAYLOAD","MEAN_MOTION_DDOT":"0.0000000000000","REV_AT_EPOCH":"3194","NORAD_CAT_ID":"53054","ARG_OF_PERICENTER":"185.9156","TLE_LINE1":"1 53054U 22077M   23038.47137654  .00001298  00000-0  10560-3 0  9993","COUNTRY_CODE":"US","ELEMENT_SET_NO":"999"},{"INCLINATION":"97.6561","LAUNCH_DATE":"2022-07-11","SITE":"AFWTR","EPHEMERIS_TYPE":"0","RA_OF_ASC_NODE":"221.7873","SEMIMAJOR_AXIS":"6941.161","TLE_LINE2":"2 53055  97.6561 221.7873 0000577  90.6314 269.4976 15.01255371 32004","OBJECT_NAME":"STARLINK-4338","CENTER_NAME":"EARTH","MEAN_MOTION_DOT":"-0.00001420","OBJECT_ID":"2022-077N","APOAPSIS":"563.427","CLASSIFICATION_TYPE":"U","TIME_SYSTEM":"UTC","BSTAR":"-0.00010601000000","MEAN_MOTION":"15.01255371","DECAY_DATE":null,"FILE":"3777976","PERIAPSIS":"562.626","ECCENTRICITY":"0.00005770","EPOCH":"2023-02-07T20:44:00.315456","REF_FRAME":"TEME","GP_ID":"224744172","PERIOD":"95.920","OBJECT_TYPE":"PAYLOAD","RCS_SIZE":"LARGE","MEAN_ANOMALY":"269.4976","MEAN_ELEMENT_THEORY":"SGP4","REV_AT_EPOCH":"3200","MEAN_MOTION_DDOT":"0.0000000000000","NORAD_CAT_ID":"53055","ELEMENT_SET_NO":"999","COUNTRY_CODE":"US","TLE_LINE1":"1 53055U 22077N   23038.86389254 -.00001420  00000-0 -10601-3 0  9997","ARG_OF_PERICENTER":"90.6314"},{"DECAY_DATE":null,"PERIAPSIS":"562.643","FILE":"3777413","EPOCH":"2023-02-07T11:13:27.476832","ECCENTRICITY":"0.00004990","GP_ID":"224710264","PERIOD":"95.919","REF_FRAME":"TEME","MEAN_ANOMALY":"96.8123","MEAN_ELEMENT_THEORY":"SGP4","RCS_SIZE":"LARGE","OBJECT_TYPE":"PAYLOAD","MEAN_MOTION_DDOT":"0.0000000000000","REV_AT_EPOCH":"3252","NORAD_CAT_ID":"53056","ARG_OF_PERICENTER":"263.3044","TLE_LINE1":"1 53056U 22077P   23038.46767913  .00002748  00000-0  21839-3 0  9993","COUNTRY_CODE":"US","ELEMENT_SET_NO":"999","INCLINATION":"97.6563","LAUNCH_DATE":"2022-07-11","EPHEMERIS_TYPE":"0","SITE":"AFWTR","SEMIMAJOR_AXIS":"6941.124","RA_OF_ASC_NODE":"221.3930","TLE_LINE2":"2 53056  97.6563 221.3930 0000499 263.3044  96.8123 15.01267388 32523","CENTER_NAME":"EARTH","OBJECT_NAME":"STARLINK-4314","OBJECT_ID":"2022-077P","MEAN_MOTION_DOT":"0.00002748","BSTAR":"0.00021839000000","MEAN_MOTION":"15.01267388","CLASSIFICATION_TYPE":"U","TIME_SYSTEM":"UTC","APOAPSIS":"563.335"},{"LAUNCH_DATE":"2022-07-11","INCLINATION":"97.6592","RA_OF_ASC_NODE":"221.4582","SEMIMAJOR_AXIS":"6941.110","EPHEMERIS_TYPE":"0","SITE":"AFWTR","OBJECT_NAME":"STARLINK-4252","CENTER_NAME":"EARTH","TLE_LINE2":"2 53057  97.6592 221.4582 0000872  88.0443 272.0881 15.01271824 32530","BSTAR":"0.00021639000000","MEAN_MOTION":"15.01271824","APOAPSIS":"563.581","TIME_SYSTEM":"UTC","CLASSIFICATION_TYPE":"U","OBJECT_ID":"2022-077Q","MEAN_MOTION_DOT":"0.00002722","FILE":"3777413","PERIAPSIS":"562.370","DECAY_DATE":null,"GP_ID":"224709915","PERIOD":"95.919","REF_FRAME":"TEME","ECCENTRICITY":"0.00008720","EPOCH":"2023-02-07T12:38:45.887136","REV_AT_EPOCH":"3253","MEAN_MOTION_DDOT":"0.0000000000000","RCS_SIZE":"LARGE","MEAN_ANOMALY":"272.0881","MEAN_ELEMENT_THEORY":"SGP4","OBJECT_TYPE":"PAYLOAD","TLE_LINE1":"1 53057U 22077Q   23038.52691999  .00002722  00000-0  21639-3 0  9991","ARG_OF_PERICENTER":"88.0443","ELEMENT_SET_NO":"999","COUNTRY_CODE":"US","NORAD_CAT_ID":"53057"},{"ELEMENT_SET_NO":"999","COUNTRY_CODE":"US","TLE_LINE1":"1 53058U 22077R   23038.46421693  .00001515  00000-0  12250-3 0  9995","ARG_OF_PERICENTER":"90.7419","NORAD_CAT_ID":"53058","REV_AT_EPOCH":"3194","MEAN_MOTION_DDOT":"0.0000000000000","OBJECT_TYPE":"PAYLOAD","RCS_SIZE":"LARGE","MEAN_ANOMALY":"269.3877","MEAN_ELEMENT_THEORY":"SGP4","REF_FRAME":"TEME","GP_ID":"224705259","PERIOD":"95.919","ECCENTRICITY":"0.00006270","EPOCH":"2023-02-07T11:08:28.342752","FILE":"3777208","PERIAPSIS":"562.558","DECAY_DATE":null,"APOAPSIS":"563.428","CLASSIFICATION_TYPE":"U","TIME_SYSTEM":"UTC","BSTAR":"0.00012250000000","MEAN_MOTION":"15.01266153","MEAN_MOTION_DOT":"0.00001515","OBJECT_ID":"2022-077R","OBJECT_NAME":"STARLINK-4317","CENTER_NAME":"EARTH","TLE_LINE2":"2 53058  97.6570 221.3926 0000627  90.7419 269.3877 15.01266153 31946","RA_OF_ASC_NODE":"221.3926","SEMIMAJOR_AXIS":"6941.128","EPHEMERIS_TYPE":"0","SITE":"AFWTR","LAUNCH_DATE":"2022-07-11","INCLINATION":"97.6570"},{"FILE":"3777976","PERIAPSIS":"561.872","DECAY_DATE":null,"GP_ID":"224743672","PERIOD":"95.919","REF_FRAME":"TEME","EPOCH":"2023-02-07T22:09:39.812544","ECCENTRICITY":"0.00016200","REV_AT_EPOCH":"3201","MEAN_MOTION_DDOT":"0.0000000000000","RCS_SIZE":"LARGE","MEAN_ANOMALY":"262.6555","MEAN_ELEMENT_THEORY":"SGP4","OBJECT_TYPE":"PAYLOAD","TLE_LINE1":"1 53059U 22077S   23038.92337746  .00002319  00000-0  18506-3 0  9995","ARG_OF_PERICENTER":"97.4853","ELEMENT_SET_NO":"999","COUNTRY_CODE":"US","NORAD_CAT_ID":"53059","LAUNCH_DATE":"2022-07-11","INCLINATION":"97.6587","RA_OF_ASC_NODE":"221.8534","SEMIMAJOR_AXIS":"6941.131","SITE":"AFWTR","EPHEMERIS_TYPE":"0","OBJECT_NAME":"STARLINK-4320","CENTER_NAME":"EARTH","TLE_LINE2":"2 53059  97.6587 221.8534 0001620  97.4853 262.6555 15.01265120 32016","MEAN_MOTION":"15.01265120","BSTAR":"0.00018506000000","APOAPSIS":"564.121","TIME_SYSTEM":"UTC","CLASSIFICATION_TYPE":"U","OBJECT_ID":"2022-077S","MEAN_MOTION_DOT":"0.00002319"},{"EPHEMERIS_TYPE":"0","SITE":"AFWTR","RA_OF_ASC_NODE":"221.3919","SEMIMAJOR_AXIS":"6941.129","INCLINATION":"97.6589","LAUNCH_DATE":"2022-07-11","OBJECT_ID":"2022-077T","MEAN_MOTION_DOT":"0.00001361","MEAN_MOTION":"15.01265826","BSTAR":"0.00011049000000","APOAPSIS":"563.774","TIME_SYSTEM":"UTC","CLASSIFICATION_TYPE":"U","TLE_LINE2":"2 53060  97.6589 221.3919 0001124  86.9047 273.2306 15.01265826 31945","OBJECT_NAME":"STARLINK-4305","CENTER_NAME":"EARTH","ECCENTRICITY":"0.00011240","EPOCH":"2023-02-07T11:05:27.399552","GP_ID":"224706748","PERIOD":"95.919","REF_FRAME":"TEME","DECAY_DATE":null,"FILE":"3777208","PERIAPSIS":"562.214","NORAD_CAT_ID":"53060","TLE_LINE1":"1 53060U 22077T   23038.46212268  .00001361  00000-0  11049-3 0  9998","ARG_OF_PERICENTER":"86.9047","ELEMENT_SET_NO":"999","COUNTRY_CODE":"US","RCS_SIZE":"LARGE","MEAN_ANOMALY":"273.2306","MEAN_ELEMENT_THEORY":"SGP4","OBJECT_TYPE":"PAYLOAD","REV_AT_EPOCH":"3194","MEAN_MOTION_DDOT":"0.0000000000000"},{"RA_OF_ASC_NODE":"221.7849","SEMIMAJOR_AXIS":"6941.138","EPHEMERIS_TYPE":"0","SITE":"AFWTR","LAUNCH_DATE":"2022-07-11","INCLINATION":"97.6589","BSTAR":"0.00011496000000","MEAN_MOTION":"15.01262862","APOAPSIS":"564.273","CLASSIFICATION_TYPE":"U","TIME_SYSTEM":"UTC","OBJECT_ID":"2022-077U","MEAN_MOTION_DOT":"0.00001418","OBJECT_NAME":"STARLINK-4308","CENTER_NAME":"EARTH","TLE_LINE2":"2 53061  97.6589 221.7849 0001830  94.7485 265.3948 15.01262862 32008","GP_ID":"224745173","PERIOD":"95.919","REF_FRAME":"TEME","EPOCH":"2023-02-07T20:30:40.410432","ECCENTRICITY":"0.00018300","FILE":"3777976","PERIAPSIS":"561.733","DECAY_DATE":null,"TLE_LINE1":"1 53061U 22077U   23038.85463438  .00001418  00000-0  11496-3 0  9998","ARG_OF_PERICENTER":"94.7485","ELEMENT_SET_NO":"999","COUNTRY_CODE":"US","NORAD_CAT_ID":"53061","REV_AT_EPOCH":"3200","MEAN_MOTION_DDOT":"0.0000000000000","RCS_SIZE":"LARGE","MEAN_ANOMALY":"265.3948","MEAN_ELEMENT_THEORY":"SGP4","OBJECT_TYPE":"PAYLOAD"}];
